GSAT0101 (PRN E11)      
1 37846U 11060A   20219.98504949 -.00000071  00000-0  00000-0 0  9997
2 37846  56.6612  39.8943 0002419  36.1562 323.8932  1.70475624 54635
GSAT0102 (PRN E12)      
1 37847U 11060B   20220.50281850 -.00000069  00000-0  00000-0 0  9998
2 37847  56.6623  39.8796 0002301 342.9446  20.9701  1.70475730 54652
GSAT0103 (PRN E19)      
1 38857U 12055A   20220.02693184  .00000003  00000-0  00000-0 0  9996
2 38857  54.9866 160.3902 0004010 274.0546  85.8699  1.70473902 48678
GSAT0104 (PRN E20)      
1 38858U 12055B   20219.96130652  .00000003  00000-0  00000-0 0  9994
2 38858  54.9875 160.3914 0002958 283.8887  76.0483  1.70473871 48675
GSAT0201 (PRN E18)      
1 40128U 14050A   20219.52825803 -.00000119  00000-0  00000-0 0  9994
2 40128  50.5638 359.3756 1662372 101.0189 278.0678  1.85519166 38639
GSAT0202 (PRN E14)      
1 40129U 14050B   20219.79179173 -.00000118  00000-0  00000-0 0  9995
2 40129  50.6001 358.4035 1660239 101.8449 277.1954  1.85519937 40773
GSAT0203 (PRN E26)      
1 40544U 15017A   20219.17947652 -.00000073  00000-0  00000-0 0  9997
2 40544  56.4549  40.0436 0002042 219.8346 140.1848  1.70474982 32700
GSAT0204 (PRN E22)      
1 40545U 15017B   20218.96058403 -.00000073  00000-0  00000+0 0  9990
2 40545  56.4597  40.0654 0002479 152.1500 207.8982  1.70475326 33367
GSAT0205 (PRN E24)      
1 40889U 15045A   20220.37626724 -.00000010  00000-0  00000+0 0  9998
2 40889  56.1115 280.7002 0002431 343.6567  16.4193  1.70475543 30534
GSAT0206 (PRN E30)      
1 40890U 15045B   20220.00925198 -.00000011  00000-0  00000+0 0  9998
2 40890  56.1114 280.7064 0001679 295.4707  64.5969  1.70475534 30553
GSAT0209 (PRN E09)      
1 41174U 15079A   20220.18193209  .00000004  00000-0  00000-0 0  9992
2 41174  55.0011 160.0840 0005323 312.1867  47.7398  1.70473083 28877
GSAT0208 (PRN E08)      
1 41175U 15079B   20219.22848692 -.00000001  00000-0  00000+0 0  9996
2 41175  55.0002 160.1097 0004530 312.6012  47.3258  1.70473104 28863
GSAT0211 (PRN E02)      
1 41549U 16030A   20219.93703049 -.00000010  00000-0  00000+0 0  9993
2 41549  56.2546 280.5701 0003673 284.7940  75.2506  1.70475308 26164
GSAT0210 (PRN E01)      
1 41550U 16030B   20218.47019969 -.00000010  00000-0  00000-0 0  9995
2 41550  56.2545 280.6122 0004096 256.4105 103.6329  1.70475298 26158
GSAT0207 (PRN E07)      
1 41859U 16069A   20219.30161668 -.00000001  00000-0  00000-0 0  9996
2 41859  54.6592 160.4585 0005184 300.3246  59.5892  1.70473015 23062
GSAT0212 (PRN E03)      
1 41860U 16069B   20219.15506043 -.00000002  00000-0  00000+0 0  9991
2 41860  54.6576 160.4614 0004248 320.0487  39.8841  1.70472883 23152
GSAT0213 (PRN E04)      
1 41861U 16069C   20220.10747531  .00000003  00000-0  00000+0 0  9998
2 41861  54.6604 160.4389 0004254 282.1036  77.8193  1.70473077 23179
GSAT0214 (PRN E05)      
1 41862U 16069D   20219.66789504  .00000001  00000-0  00000+0 0  9992
2 41862  54.6579 160.4466 0003548 288.7790  71.1502  1.70473029 23157
GSAT0215 (PRN E21)      
1 43055U 17079A   20220.15800633 -.00000010  00000-0  00000-0 0  9995
2 43055  56.2286 280.4073 0003618 249.0420 111.0039  1.70474430 16508
GSAT0216 (PRN E25)      
1 43056U 17079B   20218.69098117 -.00000010  00000-0  00000+0 0  9997
2 43056  56.2301 280.4469 0005337 257.8331 102.1957  1.70474569 16462
GSAT0217 (PRN E27)      
1 43057U 17079C   20220.08420155 -.00000010  00000-0  00000+0 0  9995
2 43057  56.2265 280.4093 0004653 265.8487  94.1830  1.70474596 16501
GSAT0218 (PRN E31)      
1 43058U 17079D   20219.71761734 -.00000010  00000-0  00000+0 0  9995
2 43058  56.2275 280.4169 0005858 255.7851 104.2358  1.70474504 16493
GSAT0221 (PRN E15)      
1 43564U 18060A   20216.68442459 -.00000073  00000-0  00000+0 0  9990
2 43564  56.8403  39.7518 0002204 263.1704  96.8450  1.70475916 12638
GSAT0222 (PRN E33)      
1 43565U 18060B   20219.83718076 -.00000071  00000-0  00000-0 0  9991
2 43565  56.8443  39.6653 0001857 278.6670  81.3447  1.70476023 12723
GSAT0219 (PRN E36)      
1 43566U 18060C   20218.88431502 -.00000073  00000-0  00000-0 0  9994
2 43566  56.8443  39.6930 0001585 264.7766  95.2396  1.70475907 12684
GSAT0220 (PRN E13)      
1 43567U 18060D   20219.10419761 -.00000072  00000-0  00000+0 0  9992
2 43567  56.8444  39.6874 0001579 266.6088  93.4070  1.70475975 12666
